NORAD_CAT_ID,OBJECT_NAME,OBJECT_TYPE,EPOCH,MEAN_MOTION,ECCENTRICITY,INCLINATION,RA_OF_ASC_NODE,ARG_OF_PERICENTER,MEAN_ANOMALY,BSTAR,MEAN_MOTION_DOT,MEAN_MOTION_DDOT,TLE_LINE0,TLE_LINE1,TLE_LINE2,SEMIMAJOR_AXIS,PERIOD,APOGEE,PERIGEE,DECAYED
53275.0,STARLINK-4179,PAYLOAD,2023-05-23 01:42:58,15.08851802,0.0001264,53.2178,90.3382,76.8017,283.3116,1.0587e-05,-1.19e-06,0.0,0 STARLINK-4179,1 53275U 22086AK  23143.07151273 -.00000119  00000-0  10587-4 0  9996,2 53275  53.2178  90.3382 0001264  76.8017 283.3116 15.08851802 46795,6917.844,95.437,540.584,538.835,0.0
53275.0,STARLINK-4179,PAYLOAD,2023-05-23 06:29:07,15.08853517,0.0001199,53.2175,89.4443,80.8215,279.2913,8.9312e-05,1.134e-05,0.0,0 STARLINK-4179,1 53275U 22086AK  23143.27022847  .00001134  00000-0  89312-4 0  9991,2 53275  53.2175  89.4443 0001199  80.8215 279.2913 15.08853517 46997,6917.839,95.437,540.534,538.875,0.0
53275.0,STARLINK-4179,PAYLOAD,2023-05-24 03:09:09,15.08835598,0.0001223,53.2174,85.5817,81.7938,278.3192,8.6429e-05,1.088e-05,0.0,0 STARLINK-4179,1 53275U 22086AK  23144.13136313  .00001088  00000-0  86429-4 0  9995,2 53275  53.2174  85.5817 0001223  81.7938 278.3192 15.08835598 46952,6917.894,95.438,540.605,538.913,0.0
53275.0,STARLINK-4179,PAYLOAD,2023-05-24 06:19:55,15.08839259,0.000125,53.2175,84.9852,81.7331,278.3803,0.00013418,1.848e-05,0.0,0 STARLINK-4179,1 53275U 22086AK  23144.26384060  .00001848  00000-0  13418-3 0  9994,2 53275  53.2175  84.9852 0001250  81.7331 278.3803 15.08839259 47141,6917.883,95.438,540.612,538.883,0.0
53275.0,STARLINK-4179,PAYLOAD,2023-05-26 04:26:06,15.08846029,0.0001273,53.2176,76.3612,87.2131,272.9007,8.9794e-05,1.142e-05,0.0,0 STARLINK-4179,1 53275U 22086AK  23146.18480106  .00001142  00000-0  89794-4 0  9993,2 53275  53.2176  76.3612 0001273  87.2131 272.9007 15.08846029 47267,6917.862,95.437,540.608,538.846,0.0
53275.0,STARLINK-4179,PAYLOAD,2023-05-27 02:41:31,15.08838558,0.0001274,53.218,72.1959,80.3008,279.8128,1.1033e-05,-1.12e-06,0.0,0 STARLINK-4179,1 53275U 22086AK  23147.11217004 -.00000112  00000-0  11033-4 0  9990,2 53275  53.2180  72.1959 0001274  80.3008 279.8128 15.08838558 47402,6917.885,95.438,540.631,538.868,0.0
53275.0,STARLINK-4179,PAYLOAD,2023-05-28 00:56:54,15.08844967,0.0001335,53.2185,68.0334,96.9635,263.1509,4.6554e-05,4.53e-06,0.0,0 STARLINK-4179,1 53275U 22086AK  23148.03952509  .00000453  00000-0  46554-4 0  9991,2 53275  53.2185  68.0334 0001335  96.9635 263.1509 15.08844967 47540,6917.865,95.437,540.654,538.807,0.0
53275.0,STARLINK-4179,PAYLOAD,2023-05-29 03:58:27,15.08847004,0.0001273,53.2182,62.9787,98.6352,261.4784,0.00011496,1.543e-05,0.0,0 STARLINK-4179,1 53275U 22086AK  23149.16560017  .00001543  00000-0  11496-3 0  9992,2 53275  53.2182  62.9787 0001273  98.6352 261.4784 15.08847004 47718,6917.859,95.437,540.605,538.843,0.0
53275.0,STARLINK-4179,PAYLOAD,2023-05-29 18:16:57,15.0882153,0.0001866,53.2177,60.2993,112.3357,247.7833,0.00017402,2.481e-05,0.0,0 STARLINK-4179,1 53275U 22086AK  23149.76177357  .00002481  00000-0  17402-3 0  9994,2 53275  53.2177  60.2993 0001866 112.3357 247.7833 15.08821530 47807,6917.937,95.439,541.093,538.511,0.0
53275.0,STARLINK-4179,PAYLOAD,2023-05-29 21:27:43,15.08807004,0.000186,53.2172,59.7047,116.6827,243.4356,0.00036492,5.519e-05,0.0,0 STARLINK-4179,1 53275U 22086AK  23149.89425664  .00005519  00000-0  36492-3 0  9990,2 53275  53.2172  59.7047 0001860 116.6827 243.4356 15.08807004 47991,6917.981,95.44,541.133,538.56,0.0
53275.0,STARLINK-4179,PAYLOAD,2023-05-30 00:38:29,15.0883432,0.0001302,53.2188,59.113,100.184,259.9299,-1.094e-05,-4.62e-06,0.0,0 STARLINK-4179,1 53275U 22086AK  23150.02673405 -.00000462  00000-0 -10940-4 0  9990,2 53275  53.2188  59.1130 0001302 100.1840 259.9299 15.08834320 48012,6917.898,95.438,540.663,538.862,0.0
53275.0,STARLINK-4179,PAYLOAD,2023-05-30 18:07:43,15.08845033,0.0001264,53.2188,55.8423,96.7183,263.3953,-2.424e-05,-6.74e-06,0.0,0 STARLINK-4179,1 53275U 22086AK  23150.75536991 -.00000674  00000-0 -24240-4 0  9991,2 53275  53.2188  55.8423 0001264  96.7183 263.3953 15.08845033 47958,6917.865,95.437,540.604,538.856,0.0
53275.0,STARLINK-4179,PAYLOAD,2023-05-30 21:18:29,15.08848076,0.0001219,53.2182,55.2481,99.4296,260.6834,2.5566e-05,1.19e-06,0.0,0 STARLINK-4179,1 53275U 22086AK  23150.88784611  .00000119  00000-0  25566-4 0  9993,2 53275  53.2182  55.2481 0001219  99.4296 260.6834 15.08848076 48145,6917.856,95.437,540.564,538.877,0.0
53275.0,STARLINK-4179,PAYLOAD,2023-05-31 00:29:15,15.08852502,0.0001202,53.2181,54.6553,87.685,272.4279,6.4532e-05,7.4e-06,0.0,0 STARLINK-4179,1 53275U 22086AK  23151.02032291  .00000740  00000-0  64532-4 0  9996,2 53275  53.2181  54.6553 0001202  87.6850 272.4279 15.08852502 47999,6917.842,95.437,540.539,538.876,0.0
53275.0,STARLINK-4179,PAYLOAD,2023-05-31 03:40:01,15.08857058,0.0001246,53.2184,54.0596,88.0073,272.1062,8.5113e-05,1.068e-05,0.0,0 STARLINK-4179,1 53275U 22086AK  23151.15279964  .00001068  00000-0  85113-4 0  9992,2 53275  53.2184  54.0596 0001246  88.0073 272.1062 15.08857058 48183,6917.828,95.436,540.555,538.831,0.0
53275.0,STARLINK-4179,PAYLOAD,2023-05-31 17:58:31,15.08838324,0.0001485,53.2181,51.3822,85.7597,274.3564,0.00015222,2.135e-05,0.0,0 STARLINK-4179,1 53275U 22086AK  23151.74897341  .00002135  00000-0  15222-3 0  9991,2 53275  53.2181  51.3822 0001485  85.7597 274.3564 15.08838324 48100,6917.886,95.438,540.778,538.723,0.0
53275.0,STARLINK-4179,PAYLOAD,2023-05-31 21:09:17,15.08838788,0.0001325,53.2178,50.787,99.2245,260.8897,0.00015011,2.102e-05,0.0,0 STARLINK-4179,1 53275U 22086AK  23151.88145297  .00002102  00000-0  15011-3 0  9992,2 53275  53.2178  50.7870 0001325  99.2245 260.8897 15.08838788 48298,6917.884,95.438,540.666,538.832,0.0
53275.0,STARLINK-4179,PAYLOAD,2023-06-01 00:20:03,15.08845694,0.0001205,53.2173,50.1951,89.2775,270.8355,0.00023149,3.399e-05,0.0,0 STARLINK-4179,1 53275U 22086AK  23152.01393071  .00003399  00000-0  23149-3 0  9993,2 53275  53.2173  50.1951 0001205  89.2775 270.8355 15.08845694 48318,6917.863,95.437,540.562,538.894,0.0
53275.0,STARLINK-4179,PAYLOAD,2023-06-01 19:24:41,15.08840938,0.000126,53.2168,46.6277,96.4618,263.6518,3.5331e-05,2.74e-06,0.0,0 STARLINK-4179,1 53275U 22086AK  23152.80881212  .00000274  00000-0  35331-4 0  9995,2 53275  53.2168  46.6277 0001260  96.4618 263.6518 15.08840938 48261,6917.878,95.437,540.614,538.871,0.0
53275.0,STARLINK-4179,PAYLOAD,2023-06-02 01:46:13,15.08844821,0.0001243,53.2172,45.4378,89.1847,270.9288,0.000126,1.718e-05,0.0,0 STARLINK-4179,1 53275U 22086AK  23153.07377090  .00001718  00000-0  12600-3 0  9996,2 53275  53.2172  45.4378 0001243  89.1847 270.9288 15.08844821 48472,6917.866,95.437,540.591,538.871,0.0
53275.0,STARLINK-4179,PAYLOAD,2023-06-02 20:50:51,15.08836872,0.0001249,53.2167,41.8702,99.7873,260.3261,4.1418e-05,3.71e-06,0.0,0 STARLINK-4179,1 53275U 22086AK  23153.86865591  .00000371  00000-0  41418-4 0  9995,2 53275  53.2167  41.8702 0001249  99.7873 260.3261 15.08836872 48593,6917.89,95.438,540.619,538.891,0.0
53275.0,STARLINK-4179,PAYLOAD,2023-06-03 01:37:01,15.08841905,0.0001275,53.2167,40.9782,100.8654,259.2481,9.7968e-05,1.272e-05,0.0,0 STARLINK-4179,1 53275U 22086AK  23154.06737422  .00001272  00000-0  97968-4 0  9991,2 53275  53.2167  40.9782 0001275 100.8654 259.2481 15.08841905 48450,6917.875,95.437,540.622,538.858,0.0
53275.0,STARLINK-4179,PAYLOAD,2023-06-03 22:17:02,15.08841679,0.0001258,53.2181,37.1111,89.9494,270.1643,9.308e-05,1.194e-05,0.0,0 STARLINK-4179,1 53275U 22086AK  23154.92849732  .00001194  00000-0  93080-4 0  9998,2 53275  53.2181  37.1111 0001258  89.9494 270.1643 15.08841679 48753,6917.875,95.437,540.611,538.87,0.0
53275.0,STARLINK-4179,PAYLOAD,2023-06-04 01:27:47,15.08847579,0.0001279,53.218,36.5163,92.373,267.7409,0.00013955,1.934e-05,0.0,0 STARLINK-4179,1 53275U 22086AK  23155.06097206  .00001934  00000-0  13955-3 0  9999,2 53275  53.2180  36.5163 0001279  92.3730 267.7409 15.08847579 48775,6917.857,95.437,540.607,538.837,0.0
53275.0,STARLINK-4179,PAYLOAD,2023-06-04 15:46:16,15.08838162,0.0001316,53.2188,33.8372,101.8007,258.3133,3.9077e-05,3.34e-06,0.0,0 STARLINK-4179,1 53275U 22086AK  23155.65714079  .00000334  00000-0  39077-4 0  9995,2 53275  53.2188  33.8372 0001316 101.8007 258.3133 15.08838162 48699,6917.886,95.438,540.661,538.841,0.0
53275.0,STARLINK-4179,PAYLOAD,2023-06-04 22:07:49,15.08843291,0.0001326,53.2191,32.6477,98.7146,261.3997,7.2367e-05,8.64e-06,0.0,0 STARLINK-4179,1 53275U 22086AK  23155.92209634  .00000864  00000-0  72367-4 0  9998,2 53275  53.2191  32.6477 0001326  98.7146 261.3997 15.08843291 48900,6917.87,95.437,540.653,538.818,0.0
53275.0,STARLINK-4179,PAYLOAD,2023-06-05 20:23:12,15.08846246,0.0001324,53.219,28.485,98.4669,261.6473,4.4001e-05,4.13e-06,0.0,0 STARLINK-4179,1 53275U 22086AK  23156.84945419  .00000413  00000-0  44001-4 0  9992,2 53275  53.2190  28.4850 0001324  98.4669 261.6473 15.08846246 49043,6917.861,95.437,540.642,538.81,0.0
53275.0,STARLINK-4179,PAYLOAD,2023-06-06 01:09:22,15.08848458,0.0001281,53.219,27.593,96.727,263.3868,5.7652e-05,6.3e-06,0.0,0 STARLINK-4179,1 53275U 22086AK  23157.04817144  .00000630  00000-0  57652-4 0  9995,2 53275  53.2190  27.5930 0001281  96.7270 263.3868 15.08848458 48901,6917.855,95.437,540.606,538.833,0.0
53275.0,STARLINK-4179,PAYLOAD,2023-06-06 18:38:37,15.08839737,0.0001209,53.2189,24.3213,95.6297,264.4833,2.2549e-05,7.1e-07,0.0,0 STARLINK-4179,1 53275U 22086AK  23157.77681771  .00000071  00000-0  22549-4 0  9996,2 53275  53.2189  24.3213 0001209  95.6297 264.4833 15.08839737 49180,6917.881,95.438,540.583,538.91,0.0
53275.0,STARLINK-4179,PAYLOAD,2023-06-06 21:49:23,15.08840971,0.0001203,53.219,23.7267,94.9419,265.171,2.9789e-05,1.86e-06,0.0,0 STARLINK-4179,1 53275U 22086AK  23157.90929651  .00000186  00000-0  29789-4 0  9993,2 53275  53.2190  23.7267 0001203  94.9419 265.1710 15.08840971 49034,6917.877,95.437,540.575,538.91,0.0
